{
 "type": "FeatureCollection",
 "features": [
  {
   "type": "Feature",
   "geometry": {
    "type": "Point",
    "coordinates": [
     -5.18083,
     36.41972
    ]
   },
   "properties": {
    "fuente": "INFOCA",
    "comunidad": "Andalucía",
    "id": "1068",
    "lat": 36.41972,
    "lon": -5.18083,
    "municipio": "Estepona",
    "provincia": "MÁLAGA",
    "tipo": "Incendio forestal",
    "estado": "activo",
    "inicio_utc": "2026-10-07T13:38+00:00",
    "fin_utc": null,
    "actualizado_utc": null,
    "superficie_ha": null,
    "medios": {
     "VEHICULOS": 1,
     "GRUPOS_ESPECIALISTAS": 1
    },
    "nota": null
   }
  },
  {
   "type": "Feature",
   "geometry": {
    "type": "Point",
    "coordinates": [
     -5.30806,
     36.37111
    ]
   },
   "properties": {
    "fuente": "INFOCA",
    "comunidad": "Andalucía",
    "id": "1067",
    "lat": 36.37111,
    "lon": -5.30806,
    "municipio": "Casares",
    "provincia": "MÁLAGA",
    "tipo": "Incendio forestal",
    "estado": "extinguido",
    "inicio_utc": "2026-10-06T19:40+00:00",
    "fin_utc": null,
    "actualizado_utc": null,
    "superficie_ha": null,
    "medios": null,
    "nota": null
   }
  },
  {
   "type": "Feature",
   "geometry": {
    "type": "Point",
    "coordinates": [
     -6.3675,
     37.44306
    ]
   },
   "properties": {
    "fuente": "INFOCA",
    "comunidad": "Andalucía",
    "id": "1066",
    "lat": 37.44306,
    "lon": -6.3675,
    "municipio": "Paterna del Campo",
    "provincia": "HUELVA",
    "tipo": "Incendio forestal",
    "estado": "extinguido",
    "inicio_utc": "2026-10-06T17:05+00:00",
    "fin_utc": null,
    "actualizado_utc": null,
    "superficie_ha": null,
    "medios": null,
    "nota": null
   }
  },
  {
   "type": "Feature",
   "geometry": {
    "type": "Point",
    "coordinates": [
     -6.90889,
     37.66694
    ]
   },
   "properties": {
    "fuente": "INFOCA",
    "comunidad": "Andalucía",
    "id": "1065",
    "lat": 37.66694,
    "lon": -6.90889,
    "municipio": "Calañas",
    "provincia": "HUELVA",
    "tipo": "Incendio forestal",
    "estado": "extinguido",
    "inicio_utc": "2026-10-06T13:40+00:00",
    "fin_utc": null,
    "actualizado_utc": null,
    "superficie_ha": null,
    "medios": null,
    "nota": null
   }
  },
  {
   "type": "Feature",
   "geometry": {
    "type": "Point",
    "coordinates": [
     -7.36,
     37.57472
    ]
   },
   "properties": {
    "fuente": "INFOCA",
    "comunidad": "Andalucía",
    "id": "1064",
    "lat": 37.57472,
    "lon": -7.36,
    "municipio": "El Almendro",
    "provincia": "HUELVA",
    "tipo": "Incendio forestal",
    "estado": "extinguido",
    "inicio_utc": "2026-10-06T13:00+00:00",
    "fin_utc": null,
    "actualizado_utc": null,
    "superficie_ha": null,
    "medios": null,
    "nota": null
   }
  },
  {
   "type": "Feature",
   "geometry": {
    "type": "Point",
    "coordinates": [
     -4.68166,
     36.64016
    ]
   },
   "properties": {
    "fuente": "INFOCA",
    "comunidad": "Andalucía",
    "id": "1063",
    "lat": 36.64016,
    "lon": -4.68166,
    "municipio": "Alhaurín el Grande",
    "provincia": "MÁLAGA",
    "tipo": "Incendio forestal",
    "estado": "extinguido",
    "inicio_utc": "2026-10-05T20:44+00:00",
    "fin_utc": null,
    "actualizado_utc": null,
    "superficie_ha": null,
    "medios": null,
    "nota": null
   }
  },
  {
   "type": "Feature",
   "geometry": {
    "type": "Point",
    "coordinates": [
     -6.04834,
     37.53075
    ]
   },
   "properties": {
    "fuente": "INFOCA",
    "comunidad": "Andalucía",
    "id": "1062",
    "lat": 37.53075,
    "lon": -6.04834,
    "municipio": "Guillena",
    "provincia": "SEVILLA",
    "tipo": "Incendio forestal",
    "estado": "extinguido",
    "inicio_utc": "2026-10-05T05:54+00:00",
    "fin_utc": null,
    "actualizado_utc": null,
    "superficie_ha": null,
    "medios": null,
    "nota": null
   }
  },
  {
   "type": "Feature",
   "geometry": {
    "type": "Point",
    "coordinates": [
     -3.23333,
     37.31528
    ]
   },
   "properties": {
    "fuente": "INFOCA",
    "comunidad": "Andalucía",
    "id": "1060",
    "lat": 37.31528,
    "lon": -3.23333,
    "municipio": "Cortes y Graena",
    "provincia": "GRANADA",
    "tipo": "Incendio forestal",
    "estado": "extinguido",
    "inicio_utc": "2026-10-04T16:50+00:00",
    "fin_utc": null,
    "actualizado_utc": null,
    "superficie_ha": null,
    "medios": null,
    "nota": null
   }
  }
 ]
}