{
 "type": "FeatureCollection",
 "features": [
  {
   "type": "Feature",
   "geometry": {
    "type": "Point",
    "coordinates": [
     -6.76929,
     38.59538
    ]
   },
   "properties": {
    "fuente": "NASA FIRMS",
    "sensor": "VIIRS",
    "satelite": "NOAA-20",
    "lat": 38.59538,
    "lon": -6.76929,
    "fecha_utc": "2026-10-07T13:48:00+00:00",
    "confianza": "media",
    "confianza_bruta": "nominal",
    "frp_mw": 4.66,
    "dia_noche": "dia",
    "resolucion_m": 375,
    "cobertura": {
     "dominante": "cultivo",
     "fracciones_pct": {
      "cultivo": 65,
      "pasto": 24,
      "bosque": 8,
      "matorral": 2
     },
     "combustible_pct": 35,
     "radio_m": 200
    },
    "viento_local": {
     "fuente": "Open-Meteo",
     "id": "38.600,-6.800",
     "nombre": null,
     "lat": 38.6,
     "lon": -6.8,
     "fecha_utc": "2026-10-07T15:45:00+00:00",
     "velocidad_kmh": 10.7,
     "racha_kmh": 22.3,
     "direccion_grados": 315.0,
     "direccion_cardinal": "NO",
     "hacia_grados": 135.0,
     "antiguedad_min": 3,
     "temperatura_c": 23.5,
     "humedad_pct": 46.0,
     "regla_30": false
    }
   }
  },
  {
   "type": "Feature",
   "geometry": {
    "type": "Point",
    "coordinates": [
     -1.75405,
     39.20724
    ]
   },
   "properties": {
    "fuente": "NASA FIRMS",
    "sensor": "VIIRS",
    "satelite": "NOAA-20",
    "lat": 39.20724,
    "lon": -1.75405,
    "fecha_utc": "2026-10-07T13:48:00+00:00",
    "confianza": "media",
    "confianza_bruta": "nominal",
    "frp_mw": 8.17,
    "dia_noche": "dia",
    "resolucion_m": 375,
    "cobertura": {
     "dominante": "cultivo",
     "fracciones_pct": {
      "cultivo": 80,
      "pasto": 10,
      "urbano": 6,
      "bosque": 2,
      "suelo desnudo": 2
     },
     "combustible_pct": 12,
     "radio_m": 200
    },
    "viento_local": {
     "fuente": "Open-Meteo",
     "id": "39.200,-1.800",
     "nombre": null,
     "lat": 39.2,
     "lon": -1.8,
     "fecha_utc": "2026-10-07T15:45:00+00:00",
     "velocidad_kmh": 14.8,
     "racha_kmh": 29.2,
     "direccion_grados": 283.0,
     "direccion_cardinal": "ONO",
     "hacia_grados": 103.0,
     "antiguedad_min": 3,
     "temperatura_c": 20.4,
     "humedad_pct": 57.0,
     "regla_30": false
    }
   }
  },
  {
   "type": "Feature",
   "geometry": {
    "type": "Point",
    "coordinates": [
     -1.76072,
     39.20675
    ]
   },
   "properties": {
    "fuente": "NASA FIRMS",
    "sensor": "VIIRS",
    "satelite": "NOAA-20",
    "lat": 39.20675,
    "lon": -1.76072,
    "fecha_utc": "2026-10-07T13:48:00+00:00",
    "confianza": "baja",
    "confianza_bruta": "low",
    "frp_mw": 8.17,
    "dia_noche": "dia",
    "resolucion_m": 375,
    "cobertura": {
     "dominante": "cultivo",
     "fracciones_pct": {
      "cultivo": 45,
      "urbano": 37,
      "pasto": 18
     },
     "combustible_pct": 18,
     "radio_m": 200
    },
    "viento_local": {
     "fuente": "Open-Meteo",
     "id": "39.200,-1.800",
     "nombre": null,
     "lat": 39.2,
     "lon": -1.8,
     "fecha_utc": "2026-10-07T15:45:00+00:00",
     "velocidad_kmh": 14.8,
     "racha_kmh": 29.2,
     "direccion_grados": 283.0,
     "direccion_cardinal": "ONO",
     "hacia_grados": 103.0,
     "antiguedad_min": 3,
     "temperatura_c": 20.4,
     "humedad_pct": 57.0,
     "regla_30": false
    }
   }
  },
  {
   "type": "Feature",
   "geometry": {
    "type": "Point",
    "coordinates": [
     -1.75459,
     39.21204
    ]
   },
   "properties": {
    "fuente": "NASA FIRMS",
    "sensor": "VIIRS",
    "satelite": "NOAA-20",
    "lat": 39.21204,
    "lon": -1.75459,
    "fecha_utc": "2026-10-07T13:48:00+00:00",
    "confianza": "baja",
    "confianza_bruta": "low",
    "frp_mw": 16.88,
    "dia_noche": "dia",
    "resolucion_m": 375,
    "cobertura": {
     "dominante": "cultivo",
     "fracciones_pct": {
      "cultivo": 45,
      "pasto": 33,
      "urbano": 22
     },
     "combustible_pct": 33,
     "radio_m": 200
    },
    "viento_local": {
     "fuente": "Open-Meteo",
     "id": "39.200,-1.800",
     "nombre": null,
     "lat": 39.2,
     "lon": -1.8,
     "fecha_utc": "2026-10-07T15:45:00+00:00",
     "velocidad_kmh": 14.8,
     "racha_kmh": 29.2,
     "direccion_grados": 283.0,
     "direccion_cardinal": "ONO",
     "hacia_grados": 103.0,
     "antiguedad_min": 3,
     "temperatura_c": 20.4,
     "humedad_pct": 57.0,
     "regla_30": false
    }
   }
  },
  {
   "type": "Feature",
   "geometry": {
    "type": "Point",
    "coordinates": [
     -1.76125,
     39.21154
    ]
   },
   "properties": {
    "fuente": "NASA FIRMS",
    "sensor": "VIIRS",
    "satelite": "NOAA-20",
    "lat": 39.21154,
    "lon": -1.76125,
    "fecha_utc": "2026-10-07T13:48:00+00:00",
    "confianza": "baja",
    "confianza_bruta": "low",
    "frp_mw": 16.88,
    "dia_noche": "dia",
    "resolucion_m": 375,
    "cobertura": {
     "dominante": "urbano",
     "fracciones_pct": {
      "urbano": 92,
      "pasto": 8
     },
     "combustible_pct": 8,
     "radio_m": 200
    },
    "viento_local": {
     "fuente": "Open-Meteo",
     "id": "39.200,-1.800",
     "nombre": null,
     "lat": 39.2,
     "lon": -1.8,
     "fecha_utc": "2026-10-07T15:45:00+00:00",
     "velocidad_kmh": 14.8,
     "racha_kmh": 29.2,
     "direccion_grados": 283.0,
     "direccion_cardinal": "ONO",
     "hacia_grados": 103.0,
     "antiguedad_min": 3,
     "temperatura_c": 20.4,
     "humedad_pct": 57.0,
     "regla_30": false
    }
   }
  },
  {
   "type": "Feature",
   "geometry": {
    "type": "Point",
    "coordinates": [
     -0.10213,
     39.8651
    ]
   },
   "properties": {
    "fuente": "NASA FIRMS",
    "sensor": "VIIRS",
    "satelite": "NOAA-21",
    "lat": 39.8651,
    "lon": -0.10213,
    "fecha_utc": "2026-10-07T12:53:00+00:00",
    "confianza": "media",
    "confianza_bruta": "nominal",
    "frp_mw": 2.29,
    "dia_noche": "dia",
    "resolucion_m": 375,
    "cobertura": {
     "dominante": "pasto",
     "fracciones_pct": {
      "pasto": 51,
      "bosque": 41,
      "cultivo": 6,
      "matorral": 2
     },
     "combustible_pct": 94,
     "radio_m": 200
    },
    "viento_local": {
     "fuente": "Open-Meteo",
     "id": "39.900,-0.100",
     "nombre": null,
     "lat": 39.9,
     "lon": -0.1,
     "fecha_utc": "2026-10-07T15:45:00+00:00",
     "velocidad_kmh": 9.8,
     "racha_kmh": 24.1,
     "direccion_grados": 114.0,
     "direccion_cardinal": "ESE",
     "hacia_grados": 294.0,
     "antiguedad_min": 3,
     "temperatura_c": 27.4,
     "humedad_pct": 54.0,
     "regla_30": false
    }
   }
  },
  {
   "type": "Feature",
   "geometry": {
    "type": "Point",
    "coordinates": [
     -3.47432,
     40.24374
    ]
   },
   "properties": {
    "fuente": "NASA FIRMS",
    "sensor": "VIIRS",
    "satelite": "NOAA-21",
    "lat": 40.24374,
    "lon": -3.47432,
    "fecha_utc": "2026-10-07T12:53:00+00:00",
    "confianza": "media",
    "confianza_bruta": "nominal",
    "frp_mw": 5.12,
    "dia_noche": "dia",
    "resolucion_m": 375,
    "cobertura": {
     "dominante": "urbano",
     "fracciones_pct": {
      "urbano": 82,
      "pasto": 8,
      "suelo desnudo": 6,
      "cultivo": 4
     },
     "combustible_pct": 8,
     "radio_m": 200
    },
    "viento_local": {
     "fuente": "Open-Meteo",
     "id": "40.200,-3.500",
     "nombre": null,
     "lat": 40.2,
     "lon": -3.5,
     "fecha_utc": "2026-10-07T15:45:00+00:00",
     "velocidad_kmh": 9.7,
     "racha_kmh": 19.1,
     "direccion_grados": 255.0,
     "direccion_cardinal": "OSO",
     "hacia_grados": 75.0,
     "antiguedad_min": 3,
     "temperatura_c": 20.9,
     "humedad_pct": 52.0,
     "regla_30": false
    }
   }
  },
  {
   "type": "Feature",
   "geometry": {
    "type": "Point",
    "coordinates": [
     -1.37181,
     41.4202
    ]
   },
   "properties": {
    "fuente": "NASA FIRMS",
    "sensor": "MODIS",
    "satelite": "Terra",
    "lat": 41.4202,
    "lon": -1.37181,
    "fecha_utc": "2026-10-07T09:49:00+00:00",
    "confianza": "baja",
    "confianza_bruta": "6",
    "frp_mw": 8.69,
    "dia_noche": "dia",
    "resolucion_m": 1000,
    "cobertura": {
     "dominante": "matorral",
     "fracciones_pct": {
      "matorral": 42,
      "bosque": 30,
      "pasto": 26,
      "urbano": 1,
      "suelo desnudo": 1,
      "cultivo": 0
     },
     "combustible_pct": 97,
     "radio_m": 500
    },
    "viento_local": {
     "fuente": "Open-Meteo",
     "id": "41.400,-1.400",
     "nombre": null,
     "lat": 41.4,
     "lon": -1.4,
     "fecha_utc": "2026-10-07T15:45:00+00:00",
     "velocidad_kmh": 15.7,
     "racha_kmh": 45.7,
     "direccion_grados": 279.0,
     "direccion_cardinal": "O",
     "hacia_grados": 99.0,
     "antiguedad_min": 3,
     "temperatura_c": 18.9,
     "humedad_pct": 54.0,
     "regla_30": false
    }
   }
  },
  {
   "type": "Feature",
   "geometry": {
    "type": "Point",
    "coordinates": [
     -6.96796,
     39.64728
    ]
   },
   "properties": {
    "fuente": "NASA FIRMS",
    "sensor": "MODIS",
    "satelite": "Terra",
    "lat": 39.64728,
    "lon": -6.96796,
    "fecha_utc": "2026-10-07T09:49:00+00:00",
    "confianza": "media",
    "confianza_bruta": "61",
    "frp_mw": 6.68,
    "dia_noche": "dia",
    "resolucion_m": 1000,
    "cobertura": {
     "dominante": "pasto",
     "fracciones_pct": {
      "pasto": 100
     },
     "combustible_pct": 100,
     "radio_m": 500
    },
    "viento_local": {
     "fuente": "Open-Meteo",
     "id": "39.600,-7.000",
     "nombre": null,
     "lat": 39.6,
     "lon": -7.0,
     "fecha_utc": "2026-10-07T15:45:00+00:00",
     "velocidad_kmh": 12.6,
     "racha_kmh": 23.0,
     "direccion_grados": 329.0,
     "direccion_cardinal": "NNO",
     "hacia_grados": 149.0,
     "antiguedad_min": 3,
     "temperatura_c": 24.5,
     "humedad_pct": 43.0,
     "regla_30": false
    }
   }
  },
  {
   "type": "Feature",
   "geometry": {
    "type": "Point",
    "coordinates": [
     -7.45476,
     39.6209
    ]
   },
   "properties": {
    "fuente": "NASA FIRMS",
    "sensor": "MODIS",
    "satelite": "Terra",
    "lat": 39.6209,
    "lon": -7.45476,
    "fecha_utc": "2026-10-07T09:49:00+00:00",
    "confianza": "baja",
    "confianza_bruta": "46",
    "frp_mw": 9.43,
    "dia_noche": "dia",
    "resolucion_m": 1000,
    "cobertura": {
     "dominante": "pasto",
     "fracciones_pct": {
      "pasto": 87,
      "cultivo": 9,
      "suelo desnudo": 2,
      "bosque": 2
     },
     "combustible_pct": 89,
     "radio_m": 500
    },
    "viento_local": {
     "fuente": "Open-Meteo",
     "id": "39.600,-7.500",
     "nombre": null,
     "lat": 39.6,
     "lon": -7.5,
     "fecha_utc": "2026-10-07T15:45:00+00:00",
     "velocidad_kmh": 7.4,
     "racha_kmh": 16.6,
     "direccion_grados": 321.0,
     "direccion_cardinal": "NO",
     "hacia_grados": 141.0,
     "antiguedad_min": 3,
     "temperatura_c": 25.3,
     "humedad_pct": 42.0,
     "regla_30": false
    }
   }
  },
  {
   "type": "Feature",
   "geometry": {
    "type": "Point",
    "coordinates": [
     -1.61175,
     38.25338
    ]
   },
   "properties": {
    "fuente": "NASA FIRMS",
    "sensor": "MODIS",
    "satelite": "Terra",
    "lat": 38.25338,
    "lon": -1.61175,
    "fecha_utc": "2026-10-07T09:49:00+00:00",
    "confianza": "baja",
    "confianza_bruta": "25",
    "frp_mw": 10.1,
    "dia_noche": "dia",
    "resolucion_m": 1000,
    "cobertura": {
     "dominante": "pasto",
     "fracciones_pct": {
      "pasto": 68,
      "cultivo": 29,
      "bosque": 3
     },
     "combustible_pct": 71,
     "radio_m": 500
    },
    "viento_local": {
     "fuente": "Open-Meteo",
     "id": "38.300,-1.600",
     "nombre": null,
     "lat": 38.3,
     "lon": -1.6,
     "fecha_utc": "2026-10-07T15:45:00+00:00",
     "velocidad_kmh": 13.0,
     "racha_kmh": 22.7,
     "direccion_grados": 289.0,
     "direccion_cardinal": "ONO",
     "hacia_grados": 109.0,
     "antiguedad_min": 3,
     "temperatura_c": 25.2,
     "humedad_pct": 41.0,
     "regla_30": false
    }
   }
  },
  {
   "type": "Feature",
   "geometry": {
    "type": "Point",
    "coordinates": [
     -5.05025,
     37.37804
    ]
   },
   "properties": {
    "fuente": "NASA FIRMS",
    "sensor": "MODIS",
    "satelite": "Terra",
    "lat": 37.37804,
    "lon": -5.05025,
    "fecha_utc": "2026-10-07T09:49:00+00:00",
    "confianza": "media",
    "confianza_bruta": "66",
    "frp_mw": 14.07,
    "dia_noche": "dia",
    "resolucion_m": 1000,
    "cobertura": {
     "dominante": "cultivo",
     "fracciones_pct": {
      "cultivo": 64,
      "bosque": 24,
      "pasto": 13
     },
     "combustible_pct": 36,
     "radio_m": 500
    },
    "viento_local": {
     "fuente": "Open-Meteo",
     "id": "37.400,-5.100",
     "nombre": null,
     "lat": 37.4,
     "lon": -5.1,
     "fecha_utc": "2026-10-07T15:45:00+00:00",
     "velocidad_kmh": 12.7,
     "racha_kmh": 25.2,
     "direccion_grados": 278.0,
     "direccion_cardinal": "O",
     "hacia_grados": 98.0,
     "antiguedad_min": 3,
     "temperatura_c": 26.3,
     "humedad_pct": 39.0,
     "regla_30": false
    }
   }
  },
  {
   "type": "Feature",
   "geometry": {
    "type": "Point",
    "coordinates": [
     -3.47442,
     40.24611
    ]
   },
   "properties": {
    "fuente": "NASA FIRMS",
    "sensor": "VIIRS",
    "satelite": "NOAA-21",
    "lat": 40.24611,
    "lon": -3.47442,
    "fecha_utc": "2026-10-07T03:10:00+00:00",
    "confianza": "media",
    "confianza_bruta": "nominal",
    "frp_mw": 4.1,
    "dia_noche": "noche",
    "resolucion_m": 375,
    "cobertura": {
     "dominante": "urbano",
     "fracciones_pct": {
      "urbano": 73,
      "suelo desnudo": 16,
      "pasto": 10
     },
     "combustible_pct": 10,
     "radio_m": 200
    },
    "viento_local": {
     "fuente": "Open-Meteo",
     "id": "40.200,-3.500",
     "nombre": null,
     "lat": 40.2,
     "lon": -3.5,
     "fecha_utc": "2026-10-07T15:45:00+00:00",
     "velocidad_kmh": 9.7,
     "racha_kmh": 19.1,
     "direccion_grados": 255.0,
     "direccion_cardinal": "OSO",
     "hacia_grados": 75.0,
     "antiguedad_min": 3,
     "temperatura_c": 20.9,
     "humedad_pct": 52.0,
     "regla_30": false
    }
   }
  },
  {
   "type": "Feature",
   "geometry": {
    "type": "Point",
    "coordinates": [
     -3.74463,
     39.93803
    ]
   },
   "properties": {
    "fuente": "NASA FIRMS",
    "sensor": "VIIRS",
    "satelite": "NOAA-21",
    "lat": 39.93803,
    "lon": -3.74463,
    "fecha_utc": "2026-10-07T03:10:00+00:00",
    "confianza": "media",
    "confianza_bruta": "nominal",
    "frp_mw": 0.85,
    "dia_noche": "noche",
    "resolucion_m": 375,
    "cobertura": {
     "dominante": "urbano",
     "fracciones_pct": {
      "urbano": 37,
      "cultivo": 27,
      "pasto": 24,
      "bosque": 12
     },
     "combustible_pct": 37,
     "radio_m": 200
    },
    "viento_local": {
     "fuente": "Open-Meteo",
     "id": "39.900,-3.700",
     "nombre": null,
     "lat": 39.9,
     "lon": -3.7,
     "fecha_utc": "2026-10-07T15:45:00+00:00",
     "velocidad_kmh": 13.7,
     "racha_kmh": 24.8,
     "direccion_grados": 270.0,
     "direccion_cardinal": "O",
     "hacia_grados": 90.0,
     "antiguedad_min": 3,
     "temperatura_c": 20.5,
     "humedad_pct": 58.0,
     "regla_30": false
    }
   }
  },
  {
   "type": "Feature",
   "geometry": {
    "type": "Point",
    "coordinates": [
     -3.47353,
     40.43236
    ]
   },
   "properties": {
    "fuente": "NASA FIRMS",
    "sensor": "VIIRS",
    "satelite": "NOAA-20",
    "lat": 40.43236,
    "lon": -3.47353,
    "fecha_utc": "2026-10-07T02:26:00+00:00",
    "confianza": "media",
    "confianza_bruta": "nominal",
    "frp_mw": 0.32,
    "dia_noche": "noche",
    "resolucion_m": 375,
    "cobertura": {
     "dominante": "cultivo",
     "fracciones_pct": {
      "cultivo": 49,
      "bosque": 31,
      "pasto": 20
     },
     "combustible_pct": 51,
     "radio_m": 200
    },
    "viento_local": {
     "fuente": "Open-Meteo",
     "id": "40.400,-3.500",
     "nombre": null,
     "lat": 40.4,
     "lon": -3.5,
     "fecha_utc": "2026-10-07T15:45:00+00:00",
     "velocidad_kmh": 6.5,
     "racha_kmh": 16.9,
     "direccion_grados": 236.0,
     "direccion_cardinal": "SO",
     "hacia_grados": 56.0,
     "antiguedad_min": 3,
     "temperatura_c": 21.9,
     "humedad_pct": 47.0,
     "regla_30": false
    }
   }
  },
  {
   "type": "Feature",
   "geometry": {
    "type": "Point",
    "coordinates": [
     -3.47607,
     40.24458
    ]
   },
   "properties": {
    "fuente": "NASA FIRMS",
    "sensor": "VIIRS",
    "satelite": "NOAA-20",
    "lat": 40.24458,
    "lon": -3.47607,
    "fecha_utc": "2026-10-07T02:26:00+00:00",
    "confianza": "media",
    "confianza_bruta": "nominal",
    "frp_mw": 0.48,
    "dia_noche": "noche",
    "resolucion_m": 375,
    "cobertura": {
     "dominante": "urbano",
     "fracciones_pct": {
      "urbano": 71,
      "suelo desnudo": 10,
      "matorral": 8,
      "cultivo": 4,
      "pasto": 4,
      "bosque": 2
     },
     "combustible_pct": 14,
     "radio_m": 200
    },
    "viento_local": {
     "fuente": "Open-Meteo",
     "id": "40.200,-3.500",
     "nombre": null,
     "lat": 40.2,
     "lon": -3.5,
     "fecha_utc": "2026-10-07T15:45:00+00:00",
     "velocidad_kmh": 9.7,
     "racha_kmh": 19.1,
     "direccion_grados": 255.0,
     "direccion_cardinal": "OSO",
     "hacia_grados": 75.0,
     "antiguedad_min": 3,
     "temperatura_c": 20.9,
     "humedad_pct": 52.0,
     "regla_30": false
    }
   }
  },
  {
   "type": "Feature",
   "geometry": {
    "type": "Point",
    "coordinates": [
     -3.74664,
     39.93861
    ]
   },
   "properties": {
    "fuente": "NASA FIRMS",
    "sensor": "VIIRS",
    "satelite": "NOAA-20",
    "lat": 39.93861,
    "lon": -3.74664,
    "fecha_utc": "2026-10-07T02:26:00+00:00",
    "confianza": "media",
    "confianza_bruta": "nominal",
    "frp_mw": 0.99,
    "dia_noche": "noche",
    "resolucion_m": 375,
    "cobertura": {
     "dominante": "cultivo",
     "fracciones_pct": {
      "cultivo": 49,
      "bosque": 20,
      "urbano": 16,
      "pasto": 14
     },
     "combustible_pct": 35,
     "radio_m": 200
    },
    "viento_local": {
     "fuente": "Open-Meteo",
     "id": "39.900,-3.700",
     "nombre": null,
     "lat": 39.9,
     "lon": -3.7,
     "fecha_utc": "2026-10-07T15:45:00+00:00",
     "velocidad_kmh": 13.7,
     "racha_kmh": 24.8,
     "direccion_grados": 270.0,
     "direccion_cardinal": "O",
     "hacia_grados": 90.0,
     "antiguedad_min": 3,
     "temperatura_c": 20.5,
     "humedad_pct": 58.0,
     "regla_30": false
    }
   }
  },
  {
   "type": "Feature",
   "geometry": {
    "type": "Point",
    "coordinates": [
     -1.90376,
     36.96652
    ]
   },
   "properties": {
    "fuente": "NASA FIRMS",
    "sensor": "VIIRS",
    "satelite": "NOAA-20",
    "lat": 36.96652,
    "lon": -1.90376,
    "fecha_utc": "2026-10-07T02:26:00+00:00",
    "confianza": "media",
    "confianza_bruta": "nominal",
    "frp_mw": 1.56,
    "dia_noche": "noche",
    "resolucion_m": 375,
    "cobertura": {
     "dominante": "urbano",
     "fracciones_pct": {
      "urbano": 51,
      "suelo desnudo": 22,
      "pasto": 18,
      "bosque": 6,
      "matorral": 2
     },
     "combustible_pct": 27,
     "radio_m": 200
    },
    "viento_local": {
     "fuente": "Open-Meteo",
     "id": "37.000,-1.900",
     "nombre": null,
     "lat": 37.0,
     "lon": -1.9,
     "fecha_utc": "2026-10-07T15:45:00+00:00",
     "velocidad_kmh": 18.3,
     "racha_kmh": 34.6,
     "direccion_grados": 227.0,
     "direccion_cardinal": "SO",
     "hacia_grados": 47.0,
     "antiguedad_min": 3,
     "temperatura_c": 26.8,
     "humedad_pct": 52.0,
     "regla_30": false
    }
   }
  },
  {
   "type": "Feature",
   "geometry": {
    "type": "Point",
    "coordinates": [
     -5.86764,
     37.36064
    ]
   },
   "properties": {
    "fuente": "NASA FIRMS",
    "sensor": "VIIRS",
    "satelite": "NOAA-20",
    "lat": 37.36064,
    "lon": -5.86764,
    "fecha_utc": "2026-10-07T02:26:00+00:00",
    "confianza": "media",
    "confianza_bruta": "nominal",
    "frp_mw": 0.94,
    "dia_noche": "noche",
    "resolucion_m": 375,
    "cobertura": {
     "dominante": "urbano",
     "fracciones_pct": {
      "urbano": 51,
      "pasto": 24,
      "bosque": 16,
      "cultivo": 8
     },
     "combustible_pct": 41,
     "radio_m": 200
    },
    "viento_local": {
     "fuente": "Open-Meteo",
     "id": "37.400,-5.900",
     "nombre": null,
     "lat": 37.4,
     "lon": -5.9,
     "fecha_utc": "2026-10-07T15:45:00+00:00",
     "velocidad_kmh": 13.1,
     "racha_kmh": 25.6,
     "direccion_grados": 278.0,
     "direccion_cardinal": "O",
     "hacia_grados": 98.0,
     "antiguedad_min": 3,
     "temperatura_c": 28.0,
     "humedad_pct": 34.0,
     "regla_30": false
    }
   }
  },
  {
   "type": "Feature",
   "geometry": {
    "type": "Point",
    "coordinates": [
     -5.4231,
     36.1774
    ]
   },
   "properties": {
    "fuente": "NASA FIRMS",
    "sensor": "VIIRS",
    "satelite": "NOAA-20",
    "lat": 36.1774,
    "lon": -5.4231,
    "fecha_utc": "2026-10-07T02:26:00+00:00",
    "confianza": "media",
    "confianza_bruta": "nominal",
    "frp_mw": 0.68,
    "dia_noche": "noche",
    "resolucion_m": 375,
    "cobertura": {
     "dominante": "urbano",
     "fracciones_pct": {
      "urbano": 75,
      "agua": 19,
      "bosque": 6
     },
     "combustible_pct": 6,
     "radio_m": 200
    },
    "viento_local": {
     "fuente": "Open-Meteo",
     "id": "36.200,-5.400",
     "nombre": null,
     "lat": 36.2,
     "lon": -5.4,
     "fecha_utc": "2026-10-07T15:45:00+00:00",
     "velocidad_kmh": 18.3,
     "racha_kmh": 34.2,
     "direccion_grados": 285.0,
     "direccion_cardinal": "ONO",
     "hacia_grados": 105.0,
     "antiguedad_min": 3,
     "temperatura_c": 25.3,
     "humedad_pct": 52.0,
     "regla_30": false
    }
   }
  },
  {
   "type": "Feature",
   "geometry": {
    "type": "Point",
    "coordinates": [
     -5.42287,
     36.17634
    ]
   },
   "properties": {
    "fuente": "NASA FIRMS",
    "sensor": "VIIRS",
    "satelite": "Suomi NPP",
    "lat": 36.17634,
    "lon": -5.42287,
    "fecha_utc": "2026-10-07T02:09:00+00:00",
    "confianza": "media",
    "confianza_bruta": "nominal",
    "frp_mw": 0.88,
    "dia_noche": "noche",
    "resolucion_m": 375,
    "cobertura": {
     "dominante": "urbano",
     "fracciones_pct": {
      "urbano": 69,
      "agua": 24,
      "bosque": 7
     },
     "combustible_pct": 7,
     "radio_m": 200
    },
    "viento_local": {
     "fuente": "Open-Meteo",
     "id": "36.200,-5.400",
     "nombre": null,
     "lat": 36.2,
     "lon": -5.4,
     "fecha_utc": "2026-10-07T15:45:00+00:00",
     "velocidad_kmh": 18.3,
     "racha_kmh": 34.2,
     "direccion_grados": 285.0,
     "direccion_cardinal": "ONO",
     "hacia_grados": 105.0,
     "antiguedad_min": 3,
     "temperatura_c": 25.3,
     "humedad_pct": 52.0,
     "regla_30": false
    }
   }
  },
  {
   "type": "Feature",
   "geometry": {
    "type": "Point",
    "coordinates": [
     -3.47569,
     40.24523
    ]
   },
   "properties": {
    "fuente": "NASA FIRMS",
    "sensor": "VIIRS",
    "satelite": "Suomi NPP",
    "lat": 40.24523,
    "lon": -3.47569,
    "fecha_utc": "2026-10-07T02:06:00+00:00",
    "confianza": "media",
    "confianza_bruta": "nominal",
    "frp_mw": 3.63,
    "dia_noche": "noche",
    "resolucion_m": 375,
    "cobertura": {
     "dominante": "urbano",
     "fracciones_pct": {
      "urbano": 76,
      "suelo desnudo": 14,
      "pasto": 4,
      "cultivo": 2,
      "bosque": 2,
      "matorral": 2
     },
     "combustible_pct": 8,
     "radio_m": 200
    },
    "viento_local": {
     "fuente": "Open-Meteo",
     "id": "40.200,-3.500",
     "nombre": null,
     "lat": 40.2,
     "lon": -3.5,
     "fecha_utc": "2026-10-07T15:45:00+00:00",
     "velocidad_kmh": 9.7,
     "racha_kmh": 19.1,
     "direccion_grados": 255.0,
     "direccion_cardinal": "OSO",
     "hacia_grados": 75.0,
     "antiguedad_min": 3,
     "temperatura_c": 20.9,
     "humedad_pct": 52.0,
     "regla_30": false
    }
   }
  },
  {
   "type": "Feature",
   "geometry": {
    "type": "Point",
    "coordinates": [
     -3.745,
     39.93721
    ]
   },
   "properties": {
    "fuente": "NASA FIRMS",
    "sensor": "VIIRS",
    "satelite": "Suomi NPP",
    "lat": 39.93721,
    "lon": -3.745,
    "fecha_utc": "2026-10-07T02:06:00+00:00",
    "confianza": "media",
    "confianza_bruta": "nominal",
    "frp_mw": 1.11,
    "dia_noche": "noche",
    "resolucion_m": 375,
    "cobertura": {
     "dominante": "cultivo",
     "fracciones_pct": {
      "cultivo": 39,
      "urbano": 35,
      "bosque": 16,
      "pasto": 10
     },
     "combustible_pct": 27,
     "radio_m": 200
    },
    "viento_local": {
     "fuente": "Open-Meteo",
     "id": "39.900,-3.700",
     "nombre": null,
     "lat": 39.9,
     "lon": -3.7,
     "fecha_utc": "2026-10-07T15:45:00+00:00",
     "velocidad_kmh": 13.7,
     "racha_kmh": 24.8,
     "direccion_grados": 270.0,
     "direccion_cardinal": "O",
     "hacia_grados": 90.0,
     "antiguedad_min": 3,
     "temperatura_c": 20.5,
     "humedad_pct": 58.0,
     "regla_30": false
    }
   }
  },
  {
   "type": "Feature",
   "geometry": {
    "type": "Point",
    "coordinates": [
     -1.79163,
     37.23658
    ]
   },
   "properties": {
    "fuente": "NASA FIRMS",
    "sensor": "VIIRS",
    "satelite": "Suomi NPP",
    "lat": 37.23658,
    "lon": -1.79163,
    "fecha_utc": "2026-10-07T02:06:00+00:00",
    "confianza": "media",
    "confianza_bruta": "nominal",
    "frp_mw": 0.28,
    "dia_noche": "noche",
    "resolucion_m": 375,
    "cobertura": {
     "dominante": "cultivo",
     "fracciones_pct": {
      "cultivo": 47,
      "bosque": 24,
      "agua": 20,
      "suelo desnudo": 4,
      "pasto": 4
     },
     "combustible_pct": 29,
     "radio_m": 200
    },
    "viento_local": {
     "fuente": "Open-Meteo",
     "id": "37.200,-1.800",
     "nombre": null,
     "lat": 37.2,
     "lon": -1.8,
     "fecha_utc": "2026-10-07T15:45:00+00:00",
     "velocidad_kmh": 15.1,
     "racha_kmh": 27.7,
     "direccion_grados": 198.0,
     "direccion_cardinal": "SSO",
     "hacia_grados": 18.0,
     "antiguedad_min": 3,
     "temperatura_c": 28.2,
     "humedad_pct": 49.0,
     "regla_30": false
    }
   }
  },
  {
   "type": "Feature",
   "geometry": {
    "type": "Point",
    "coordinates": [
     -1.90653,
     36.96669
    ]
   },
   "properties": {
    "fuente": "NASA FIRMS",
    "sensor": "VIIRS",
    "satelite": "Suomi NPP",
    "lat": 36.96669,
    "lon": -1.90653,
    "fecha_utc": "2026-10-07T02:06:00+00:00",
    "confianza": "media",
    "confianza_bruta": "nominal",
    "frp_mw": 1.29,
    "dia_noche": "noche",
    "resolucion_m": 375,
    "cobertura": {
     "dominante": "urbano",
     "fracciones_pct": {
      "urbano": 65,
      "suelo desnudo": 12,
      "pasto": 12,
      "bosque": 10
     },
     "combustible_pct": 22,
     "radio_m": 200
    },
    "viento_local": {
     "fuente": "Open-Meteo",
     "id": "37.000,-1.900",
     "nombre": null,
     "lat": 37.0,
     "lon": -1.9,
     "fecha_utc": "2026-10-07T15:45:00+00:00",
     "velocidad_kmh": 18.3,
     "racha_kmh": 34.6,
     "direccion_grados": 227.0,
     "direccion_cardinal": "SO",
     "hacia_grados": 47.0,
     "antiguedad_min": 3,
     "temperatura_c": 26.8,
     "humedad_pct": 52.0,
     "regla_30": false
    }
   }
  },
  {
   "type": "Feature",
   "geometry": {
    "type": "Point",
    "coordinates": [
     -6.67368,
     37.3595
    ]
   },
   "properties": {
    "fuente": "NASA FIRMS",
    "sensor": "VIIRS",
    "satelite": "Suomi NPP",
    "lat": 37.3595,
    "lon": -6.67368,
    "fecha_utc": "2026-10-07T02:06:00+00:00",
    "confianza": "media",
    "confianza_bruta": "nominal",
    "frp_mw": 0.7,
    "dia_noche": "noche",
    "resolucion_m": 375,
    "cobertura": {
     "dominante": "urbano",
     "fracciones_pct": {
      "urbano": 33,
      "bosque": 27,
      "pasto": 24,
      "cultivo": 10,
      "suelo desnudo": 4,
      "agua": 2
     },
     "combustible_pct": 51,
     "radio_m": 200
    },
    "viento_local": {
     "fuente": "Open-Meteo",
     "id": "37.400,-6.700",
     "nombre": null,
     "lat": 37.4,
     "lon": -6.7,
     "fecha_utc": "2026-10-07T15:45:00+00:00",
     "velocidad_kmh": 13.1,
     "racha_kmh": 25.2,
     "direccion_grados": 302.0,
     "direccion_cardinal": "ONO",
     "hacia_grados": 122.0,
     "antiguedad_min": 3,
     "temperatura_c": 26.4,
     "humedad_pct": 39.0,
     "regla_30": false
    }
   }
  },
  {
   "type": "Feature",
   "geometry": {
    "type": "Point",
    "coordinates": [
     -6.67253,
     37.35897
    ]
   },
   "properties": {
    "fuente": "NASA FIRMS",
    "sensor": "VIIRS",
    "satelite": "NOAA-21",
    "lat": 37.35897,
    "lon": -6.67253,
    "fecha_utc": "2026-10-07T01:30:00+00:00",
    "confianza": "media",
    "confianza_bruta": "nominal",
    "frp_mw": 0.65,
    "dia_noche": "noche",
    "resolucion_m": 375,
    "cobertura": {
     "dominante": "pasto",
     "fracciones_pct": {
      "pasto": 37,
      "urbano": 31,
      "bosque": 14,
      "cultivo": 12,
      "suelo desnudo": 6
     },
     "combustible_pct": 51,
     "radio_m": 200
    },
    "viento_local": {
     "fuente": "Open-Meteo",
     "id": "37.400,-6.700",
     "nombre": null,
     "lat": 37.4,
     "lon": -6.7,
     "fecha_utc": "2026-10-07T15:45:00+00:00",
     "velocidad_kmh": 13.1,
     "racha_kmh": 25.2,
     "direccion_grados": 302.0,
     "direccion_cardinal": "ONO",
     "hacia_grados": 122.0,
     "antiguedad_min": 3,
     "temperatura_c": 26.4,
     "humedad_pct": 39.0,
     "regla_30": false
    }
   }
  },
  {
   "type": "Feature",
   "geometry": {
    "type": "Point",
    "coordinates": [
     -1.9039,
     36.9675
    ]
   },
   "properties": {
    "fuente": "NASA FIRMS",
    "sensor": "VIIRS",
    "satelite": "NOAA-21",
    "lat": 36.9675,
    "lon": -1.9039,
    "fecha_utc": "2026-10-07T01:30:00+00:00",
    "confianza": "media",
    "confianza_bruta": "nominal",
    "frp_mw": 1.73,
    "dia_noche": "noche",
    "resolucion_m": 375,
    "cobertura": {
     "dominante": "urbano",
     "fracciones_pct": {
      "urbano": 57,
      "suelo desnudo": 29,
      "pasto": 10,
      "bosque": 4
     },
     "combustible_pct": 14,
     "radio_m": 200
    },
    "viento_local": {
     "fuente": "Open-Meteo",
     "id": "37.000,-1.900",
     "nombre": null,
     "lat": 37.0,
     "lon": -1.9,
     "fecha_utc": "2026-10-07T15:45:00+00:00",
     "velocidad_kmh": 18.3,
     "racha_kmh": 34.6,
     "direccion_grados": 227.0,
     "direccion_cardinal": "SO",
     "hacia_grados": 47.0,
     "antiguedad_min": 3,
     "temperatura_c": 26.8,
     "humedad_pct": 52.0,
     "regla_30": false
    }
   }
  },
  {
   "type": "Feature",
   "geometry": {
    "type": "Point",
    "coordinates": [
     -5.42142,
     36.17879
    ]
   },
   "properties": {
    "fuente": "NASA FIRMS",
    "sensor": "VIIRS",
    "satelite": "NOAA-21",
    "lat": 36.17879,
    "lon": -5.42142,
    "fecha_utc": "2026-10-07T01:30:00+00:00",
    "confianza": "media",
    "confianza_bruta": "nominal",
    "frp_mw": 0.76,
    "dia_noche": "noche",
    "resolucion_m": 375,
    "cobertura": {
     "dominante": "urbano",
     "fracciones_pct": {
      "urbano": 80,
      "agua": 12,
      "pasto": 8
     },
     "combustible_pct": 8,
     "radio_m": 200
    },
    "viento_local": {
     "fuente": "Open-Meteo",
     "id": "36.200,-5.400",
     "nombre": null,
     "lat": 36.2,
     "lon": -5.4,
     "fecha_utc": "2026-10-07T15:45:00+00:00",
     "velocidad_kmh": 18.3,
     "racha_kmh": 34.2,
     "direccion_grados": 285.0,
     "direccion_cardinal": "ONO",
     "hacia_grados": 105.0,
     "antiguedad_min": 3,
     "temperatura_c": 25.3,
     "humedad_pct": 52.0,
     "regla_30": false
    }
   }
  },
  {
   "type": "Feature",
   "geometry": {
    "type": "Point",
    "coordinates": [
     -5.22434,
     38.58708
    ]
   },
   "properties": {
    "fuente": "NASA FIRMS",
    "sensor": "MODIS",
    "satelite": "Aqua",
    "lat": 38.58708,
    "lon": -5.22434,
    "fecha_utc": "2026-10-06T15:52:00+00:00",
    "confianza": "baja",
    "confianza_bruta": "48",
    "frp_mw": 14.33,
    "dia_noche": "dia",
    "resolucion_m": 1000,
    "cobertura": {
     "dominante": "cultivo",
     "fracciones_pct": {
      "cultivo": 94,
      "pasto": 5,
      "bosque": 1
     },
     "combustible_pct": 6,
     "radio_m": 500
    },
    "viento_local": {
     "fuente": "Open-Meteo",
     "id": "38.600,-5.200",
     "nombre": null,
     "lat": 38.6,
     "lon": -5.2,
     "fecha_utc": "2026-10-07T15:45:00+00:00",
     "velocidad_kmh": 12.1,
     "racha_kmh": 27.4,
     "direccion_grados": 300.0,
     "direccion_cardinal": "ONO",
     "hacia_grados": 120.0,
     "antiguedad_min": 3,
     "temperatura_c": 22.3,
     "humedad_pct": 48.0,
     "regla_30": false
    }
   }
  }
 ]
}