{"type":"FeatureCollection","name":"incidencias_112","features":[{"type":"Feature","geometry":{"type":"Point","coordinates":[-3.46685,41.34712]},"properties":{"fuente":"INFORCYL","comunidad":"Castilla y León","id":"40-259-26","municipio":"FRESNO DE CANTESPINO","provincia":"SEGOVIA","tipo":"Incendio forestal","estado":"activo","inicio_utc":"2026-10-07T16:30+00:00","fin_utc":null,"actualizado_utc":null,"superficie_ha":null,"medios":null,"nota":null,"cobertura":{"dominante":"bosque","fracciones_pct":{"bosque":88,"matorral":6,"pasto":6},"combustible_pct":100,"radio_m":200}}},{"type":"Feature","geometry":{"type":"Point","coordinates":[-5.18083,36.41972]},"properties":{"fuente":"INFOCA","comunidad":"Andalucía","id":"1068","municipio":"Estepona","provincia":"MÁLAGA","tipo":"Incendio forestal","estado":"extinguido","inicio_utc":"2026-10-07T13:38+00:00","fin_utc":null,"actualizado_utc":null,"superficie_ha":null,"medios":{"VEHICULOS":1,"GRUPOS_ESPECIALISTAS":1},"nota":null,"cobertura":{"dominante":"pasto","fracciones_pct":{"pasto":67,"bosque":27,"urbano":4,"matorral":2},"combustible_pct":96,"radio_m":200}}},{"type":"Feature","geometry":{"type":"Point","coordinates":[-4.35877,40.91663]},"properties":{"fuente":"INFORCYL","comunidad":"Castilla y León","id":"40-258-26","municipio":"MARAZOLEJA","provincia":"SEGOVIA","tipo":"Incendio forestal","estado":"estabilizado","inicio_utc":"2026-10-07T13:16+00:00","fin_utc":null,"actualizado_utc":null,"superficie_ha":0.01,"medios":{"Autobombas":2,"A.M. / Celador":1,"Otras Administraciones":1},"nota":"Causa: Desconocido","cobertura":{"dominante":"pasto","fracciones_pct":{"pasto":61,"cultivo":31,"matorral":6,"bosque":2},"combustible_pct":69,"radio_m":200}}},{"type":"Feature","geometry":{"type":"Point","coordinates":[-4.91564,40.81675]},"properties":{"fuente":"INFORCYL","comunidad":"Castilla y León","id":"5-214-26","municipio":"MUÑOGRANDE","provincia":"AVILA","tipo":"Incendio forestal","estado":"extinguido","inicio_utc":"2026-10-07T12:22+00:00","fin_utc":"2026-10-07T12:50+00:00","actualizado_utc":null,"superficie_ha":null,"medios":{"A.M. / Celador":2},"nota":null,"cobertura":{"dominante":"cultivo","fracciones_pct":{"cultivo":76,"pasto":16,"urbano":8},"combustible_pct":16,"radio_m":200}}},{"type":"Feature","geometry":{"type":"Point","coordinates":[-5.28284,40.12833]},"properties":{"fuente":"INFORCYL","comunidad":"Castilla y León","id":"5-213-26","municipio":"CANDELEDA","provincia":"AVILA","tipo":"Incendio forestal","estado":"extinguido","inicio_utc":"2026-10-07T09:40+00:00","fin_utc":"2026-10-07T11:00+00:00","actualizado_utc":null,"superficie_ha":0.0,"medios":{"A.M. / Celador":2,"Autobombas":1},"nota":"Causa: Negligencias","cobertura":{"dominante":"pasto","fracciones_pct":{"pasto":73,"cultivo":24,"bosque":2},"combustible_pct":76,"radio_m":200}}},{"type":"Feature","geometry":{"type":"Point","coordinates":[-5.30806,36.37111]},"properties":{"fuente":"INFOCA","comunidad":"Andalucía","id":"1067","municipio":"Casares","provincia":"MÁLAGA","tipo":"Incendio forestal","estado":"extinguido","inicio_utc":"2026-10-06T19:40+00:00","fin_utc":null,"actualizado_utc":null,"superficie_ha":null,"medios":null,"nota":null,"cobertura":{"dominante":"pasto","fracciones_pct":{"pasto":51,"bosque":39,"cultivo":8,"matorral":2},"combustible_pct":92,"radio_m":200}}},{"type":"Feature","geometry":{"type":"Point","coordinates":[-6.3675,37.44306]},"properties":{"fuente":"INFOCA","comunidad":"Andalucía","id":"1066","municipio":"Paterna del Campo","provincia":"HUELVA","tipo":"Incendio forestal","estado":"extinguido","inicio_utc":"2026-10-06T17:05+00:00","fin_utc":null,"actualizado_utc":null,"superficie_ha":null,"medios":null,"nota":null,"cobertura":{"dominante":"cultivo","fracciones_pct":{"cultivo":98,"pasto":2},"combustible_pct":2,"radio_m":200}}},{"type":"Feature","geometry":{"type":"Point","coordinates":[-6.90889,37.66694]},"properties":{"fuente":"INFOCA","comunidad":"Andalucía","id":"1065","municipio":"Calañas","provincia":"HUELVA","tipo":"Incendio forestal","estado":"extinguido","inicio_utc":"2026-10-06T13:40+00:00","fin_utc":null,"actualizado_utc":null,"superficie_ha":null,"medios":null,"nota":null,"cobertura":{"dominante":"matorral","fracciones_pct":{"matorral":47,"pasto":31,"bosque":22},"combustible_pct":100,"radio_m":200}}},{"type":"Feature","geometry":{"type":"Point","coordinates":[-7.36,37.57472]},"properties":{"fuente":"INFOCA","comunidad":"Andalucía","id":"1064","municipio":"El Almendro","provincia":"HUELVA","tipo":"Incendio forestal","estado":"extinguido","inicio_utc":"2026-10-06T13:00+00:00","fin_utc":null,"actualizado_utc":null,"superficie_ha":null,"medios":null,"nota":null,"cobertura":{"dominante":"matorral","fracciones_pct":{"matorral":86,"bosque":8,"pasto":4,"cultivo":2},"combustible_pct":98,"radio_m":200}}},{"type":"Feature","geometry":{"type":"Point","coordinates":[-4.68166,36.64016]},"properties":{"fuente":"INFOCA","comunidad":"Andalucía","id":"1063","municipio":"Alhaurín el Grande","provincia":"MÁLAGA","tipo":"Incendio forestal","estado":"extinguido","inicio_utc":"2026-10-05T20:44+00:00","fin_utc":null,"actualizado_utc":null,"superficie_ha":null,"medios":null,"nota":null,"cobertura":{"dominante":"urbano","fracciones_pct":{"urbano":41,"bosque":33,"pasto":27},"combustible_pct":59,"radio_m":200}}},{"type":"Feature","geometry":{"type":"Point","coordinates":[-6.04834,37.53075]},"properties":{"fuente":"INFOCA","comunidad":"Andalucía","id":"1062","municipio":"Guillena","provincia":"SEVILLA","tipo":"Incendio forestal","estado":"extinguido","inicio_utc":"2026-10-05T05:54+00:00","fin_utc":null,"actualizado_utc":null,"superficie_ha":null,"medios":null,"nota":null,"cobertura":{"dominante":"cultivo","fracciones_pct":{"cultivo":73,"bosque":20,"pasto":6},"combustible_pct":27,"radio_m":200}}},{"type":"Feature","geometry":{"type":"Point","coordinates":[-3.23333,37.31528]},"properties":{"fuente":"INFOCA","comunidad":"Andalucía","id":"1060","municipio":"Cortes y Graena","provincia":"GRANADA","tipo":"Incendio forestal","estado":"extinguido","inicio_utc":"2026-10-04T16:50+00:00","fin_utc":null,"actualizado_utc":null,"superficie_ha":null,"medios":null,"nota":null,"cobertura":{"dominante":"pasto","fracciones_pct":{"pasto":53,"bosque":45,"cultivo":2},"combustible_pct":98,"radio_m":200}}}]}